OBJECT_NAME,OBJECT_ID,EPOCH,MEAN_MOTION,ECCENTRICITY,INCLINATION,RA_OF_ASC_NODE,ARG_OF_PERICENTER,MEAN_ANOMALY,EPHEMERIS_TYPE,CLASSIFICATION_TYPE,NORAD_CAT_ID,ELEMENT_SET_NO,REV_AT_EPOCH,BSTAR,MEAN_MOTION_DOT,MEAN_MOTION_DDOT
SATELIOT_2,2024-149BU,2026-05-13T17:17:06.180288,14.96228537,.00013425,97.6833,209.3072,109.6703,250.4664,0,U,60534,999,9481,.59089935E-4,.61E-5,0
NIGHTJAR,2024-149BV,2026-05-13T22:42:20.735712,14.98807220,.00014525,97.6836,211.1320,148.4416,211.6894,0,U,60535,999,13774,.15633149E-3,.1826E-4,0
LEMUR-2-MARHISYAM,2024-149BW,2026-05-13T05:24:44.572032,15.10506953,.0001549,97.6878,215.9632,187.9861,172.1344,0,U,60536,999,9520,.36839772E-3,.6005E-4,0
SATELIOT_4,2024-149BX,2026-05-13T11:17:49.934976,14.96534973,.00030954,97.6737,208.6134,130.3833,229.7660,0,U,60537,999,9478,.10906907E-3,.1183E-4,0
PICO-02A021,2024-149BY,2026-05-13T11:34:33.288672,15.02914671,.00068252,97.6770,212.6235,125.9573,234.2286,0,U,60538,999,9452,.23427289E-3,.3085E-4,0
ICEYE-X43,2024-149BZ,2026-05-13T11:13:22.608192,14.99747683,.00045295,97.6772,210.9120,197.5457,162.5610,0,U,60539,999,9491,.13388852E-3,.1595E-4,0
HAWK-10A,2024-149CA,2026-05-13T04:45:56.913696,14.96398487,.00035608,97.6894,209.7129,167.1449,192.9864,0,U,60540,999,9475,.55990392E-4,.577E-5,0
UMBRA-09,2024-149CB,2026-05-13T17:05:34.492992,15.16959204,.00014567,97.6972,220.3604,135.5713,224.5637,0,U,60541,999,9549,.50824931E-3,.9968E-4,0
QPS-SAR-8 (AMATERU-IV),2024-149CC,2026-05-13T11:06:51.125472,15.03767988,.00025198,97.6665,212.9153,195.3735,164.7414,0,U,60542,999,9505,.18937376E-3,.2539E-4,0
ARCTIC WEATHER SATELLITE,2024-149CD,2026-05-13T03:51:44.680320,14.89795499,.00016369,97.6807,204.6250,180.2476,179.8741,0,U,60543,999,9408,.55420418E-4,.478E-5,0
CAPELLA-15 (ACADIA-5),2024-149CE,2026-05-13T11:00:27.489600,14.92415766,.00042836,97.6776,207.2254,173.4803,186.6473,0,U,60544,999,9467,.52253355E-4,.48E-5,0
HAWK-10B,2024-149CF,2026-05-13T11:10:54.117696,14.96399622,.00049361,97.6815,209.3657,194.6733,165.4346,0,U,60545,999,9479,.65944898E-4,.69E-5,0
ICEYE-X39,2024-149CG,2026-05-13T04:24:12.586464,14.99708403,.00022768,97.6822,210.6824,177.6514,182.4721,0,U,60546,999,9487,.13428134E-3,.1598E-4,0
UMBRA-10,2024-149CH,2026-05-13T17:04:55.874784,15.16958064,.00022695,97.6974,220.3847,109.0333,251.1145,0,U,60547,999,9550,.50626704E-3,.9928E-4,0
ICEYE-X33,2024-149CJ,2026-05-13T04:02:26.831904,15.00896443,.00005101,97.7211,212.5224,326.5121,33.6071,0,U,60548,999,9495,.24659856E-3,.3079E-4,0
ICEYE-X40,2024-149CK,2026-05-13T03:56:46.388256,14.97828544,.0004875,97.6815,210.2247,170.7501,189.3812,0,U,60549,999,9483,.15223848E-3,.1732E-4,0
SATELIOT_1,2024-149CL,2026-05-13T03:47:46.783104,14.97922733,.0006792,97.6753,209.6413,176.0376,184.0901,0,U,60550,999,9482,.19509842E-3,.2242E-4,0
BRO-14,2024-149CM,2026-05-13T22:51:48.120192,14.96109337,.00062154,97.6874,210.3453,198.9160,161.1832,0,U,60551,999,9487,.95823121E-4,.1021E-4,0
SATELIOT_3,2024-149CN,2026-05-13T11:13:24.248064,14.97903855,.00048795,97.6819,210.7059,188.0175,172.0971,0,U,60552,999,9488,.89983694E-4,.1002E-4,0
BRO-15,2024-149CP,2026-05-13T11:11:05.588160,14.96065347,.00076916,97.6804,209.5023,194.1657,165.9350,0,U,60553,999,9481,.25233379E-4,.226E-5,0
UM5-RIBAT,2024-149CQ,2026-05-13T04:56:56.166432,15.00871114,.00031594,97.6660,211.4782,116.8833,243.2714,0,U,60554,999,9494,.13226999E-3,.1623E-4,0
UM5-EOSAT,2024-149CR,2026-05-13T17:10:28.375680,15.01277889,.00067662,97.6657,212.8829,217.0324,143.0434,0,U,60555,999,9504,.14118106E-3,.1756E-4,0
LASARSAT,2024-247Q,2026-05-13T07:48:14.278464,15.44166921,.00047635,44.9736,97.7722,121.9276,238.2076,0,U,62391,999,7792,.41582108E-3,.19182E-3,0
CROCUBE,2024-247T,2026-05-13T22:38:51.804096,15.45786748,.00044874,44.9715,92.1524,130.7673,229.3607,0,U,62394,999,7804,.55089277E-3,.27024E-3,0
TEVEL2-4,2025-052D,2026-05-13T05:12:31.818816,15.33357973,.000165,97.3947,29.5787,172.9498,187.1768,0,U,63213,999,6475,.31671812E-3,.10134E-3,0
TEVEL2-5,2025-052E,2026-05-13T22:50:29.847840,15.33219047,.00017034,97.3950,30.2711,170.8611,189.2663,0,U,63214,999,6486,.38192854E-3,.12186E-3,0
TEVEL2-6,2025-052F,2026-05-13T05:53:14.205120,15.33165748,.00016986,97.3949,29.5493,177.1001,183.0252,0,U,63215,999,6475,.32396047E-3,.10305E-3,0
TEVEL2-1,2025-052H,2026-05-13T06:18:21.395232,15.32676115,.00011418,97.3921,29.2310,196.4302,163.6903,0,U,63217,999,6474,.32184406E-3,.1008E-3,0
TEVEL2-3,2025-052J,2026-05-13T04:38:18.710304,15.32722625,.00011,97.3924,29.1793,196.7883,163.3323,0,U,63218,999,6473,.32083215E-3,.10063E-3,0
TEVEL2-2,2025-052K,2026-05-13T23:33:11.445408,15.32698350,.00012153,97.3924,29.9505,195.0348,165.0858,0,U,63219,999,6485,.38908985E-3,.12214E-3,0
