SATELIOT_2              
1 60534U 24149BU  26133.72021042  .00000610  00000+0  59090-4 0  9994
2 60534  97.6833 209.3072 0001342 109.6703 250.4664 14.96228537 94811
NIGHTJAR                
1 60535U 24149BV  26133.94607333  .00001826  00000+0  15633-3 0  9996
2 60535  97.6836 211.1320 0001452 148.4416 211.6894 14.98807220137744
LEMUR-2-MARHISYAM       
1 60536U 24149BW  26133.22551588  .00006005  00000+0  36840-3 0  9995
2 60536  97.6878 215.9632 0001549 187.9861 172.1344 15.10506953 95207
SATELIOT_4              
1 60537U 24149BX  26133.47071684  .00001183  00000+0  10907-3 0  9995
2 60537  97.6737 208.6134 0003095 130.3833 229.7660 14.96534973 94785
PICO-02A021             
1 60538U 24149BY  26133.48232973  .00003085  00000+0  23427-3 0  9991
2 60538  97.6770 212.6235 0006825 125.9573 234.2286 15.02914671 94527
ICEYE-X43               
1 60539U 24149BZ  26133.46762278  .00001595  00000+0  13389-3 0  9996
2 60539  97.6772 210.9120 0004529 197.5457 162.5610 14.99747683 94918
HAWK-10A                
1 60540U 24149CA  26133.19857539  .00000577  00000+0  55990-4 0  9997
2 60540  97.6894 209.7129 0003560 167.1449 192.9864 14.96398487 94759
UMBRA-09                
1 60541U 24149CB  26133.71220478  .00009968  00000+0  50825-3 0  9996
2 60541  97.6972 220.3604 0001456 135.5713 224.5637 15.16959204 95494
QPS-SAR-8 (AMATERU-IV)  
1 60542U 24149CC  26133.46309173  .00002539  00000+0  18937-3 0  9994
2 60542  97.6665 212.9153 0002519 195.3735 164.7414 15.03767988 95051
ARCTIC WEATHER SATELLITE
1 60543U 24149CD  26133.16093380  .00000478  00000+0  55420-4 0  9991
2 60543  97.6807 204.6250 0001636 180.2476 179.8741 14.89795499 94083
CAPELLA-15 (ACADIA-5)   
1 60544U 24149CE  26133.45865150  .00000480  00000+0  52253-4 0  9990
2 60544  97.6776 207.2254 0004283 173.4803 186.6473 14.92415766 94674
HAWK-10B                
1 60545U 24149CF  26133.46590414  .00000690  00000+0  65945-4 0  9995
2 60545  97.6815 209.3657 0004936 194.6733 165.4346 14.96399622 94794
ICEYE-X39               
1 60546U 24149CG  26133.18347901  .00001598  00000+0  13428-3 0  9992
2 60546  97.6822 210.6824 0002276 177.6514 182.4721 14.99708403 94876
UMBRA-10                
1 60547U 24149CH  26133.71175781  .00009928  00000+0  50627-3 0  9994
2 60547  97.6974 220.3847 0002269 109.0333 251.1145 15.16958064 95503
ICEYE-X33               
1 60548U 24149CJ  26133.16836611  .00003079  00000+0  24660-3 0  9999
2 60548  97.7211 212.5224 0000510 326.5121  33.6071 15.00896443 94953
ICEYE-X40               
1 60549U 24149CK  26133.16442579  .00001732  00000+0  15224-3 0  9996
2 60549  97.6815 210.2247 0004875 170.7501 189.3812 14.97828544 94833
SATELIOT_1              
1 60550U 24149CL  26133.15818036  .00002242  00000+0  19510-3 0  9991
2 60550  97.6753 209.6413 0006792 176.0376 184.0901 14.97922733 94827
BRO-14                  
1 60551U 24149CM  26133.95264028  .00001021  00000+0  95823-4 0  9992
2 60551  97.6874 210.3453 0006215 198.9160 161.1832 14.96109337 94879
SATELIOT_3              
1 60552U 24149CN  26133.46764176  .00001002  00000+0  89984-4 0  9998
2 60552  97.6819 210.7059 0004879 188.0175 172.0971 14.97903855 94889
BRO-15                  
1 60553U 24149CP  26133.46603690  .00000226  00000+0  25233-4 0  9996
2 60553  97.6804 209.5023 0007691 194.1657 165.9350 14.96065347 94818
UM5-RIBAT               
1 60554U 24149CQ  26133.20620563  .00001623  00000+0  13227-3 0  9998
2 60554  97.6660 211.4782 0003159 116.8833 243.2714 15.00871114 94946
UM5-EOSAT               
1 60555U 24149CR  26133.71560620  .00001756  00000+0  14118-3 0  9999
2 60555  97.6657 212.8829 0006766 217.0324 143.0434 15.01277889 95044
LASARSAT                
1 62391U 24247Q   26133.32516526  .00019182  00000+0  41582-3 0  9998
2 62391  44.9736  97.7722 0004763 121.9276 238.2076 15.44166921 77920
CROCUBE                 
1 62394U 24247T   26133.94365514  .00027024  00000+0  55089-3 0  9999
2 62394  44.9715  92.1524 0004487 130.7673 229.3607 15.45786748 78042
TEVEL2-4                
1 63213U 25052D   26133.21703494  .00010134  00000+0  31672-3 0  9994
2 63213  97.3947  29.5787 0001650 172.9498 187.1768 15.33357973 64752
TEVEL2-5                
1 63214U 25052E   26133.95173435  .00012186  00000+0  38193-3 0  9996
2 63214  97.3950  30.2711 0001703 170.8611 189.2663 15.33219047 64864
TEVEL2-6                
1 63215U 25052F   26133.24530330  .00010305  00000+0  32396-3 0  9990
2 63215  97.3949  29.5493 0001698 177.1001 183.0252 15.33165748 64759
TEVEL2-1                
1 63217U 25052H   26133.26274763  .00010080  00000+0  32184-3 0  9994
2 63217  97.3921  29.2310 0001141 196.4302 163.6903 15.32676115 64747
TEVEL2-3                
1 63218U 25052J   26133.19327211  .00010063  00000+0  32083-3 0  9993
2 63218  97.3924  29.1793 0001100 196.7883 163.3323 15.32722625 64737
TEVEL2-2                
1 63219U 25052K   26133.98138247  .00012214  00000+0  38909-3 0  9993
2 63219  97.3924  29.9505 0001215 195.0348 165.0858 15.32698350 64854
